A/2019 G2,e,159.2049,208.1506,82.6166,590.6565,0.0000687,0.99612162,0.0000,12/09.8320/2019,2000,g 16.5,2.0
# From MPEC 2021-N06
A/2019 G4,h,09/16.1438/2018,138.3840,130.4641,287.8667,1.002012,5.856508,2000,13.0,2.0
# From MPC114607
P/2019 GG21 (PANSTARRS),e,6.0842,340.5709,208.5993,7.474453,0.0482320,0.47256301,42.8793,10/16.0/2021,2000,g 12.0,4.0
# From MPC115885
C/2019 H1 (NEOWISE),e,104.5482,269.2140,19.3439,240.4562,0.0002643,0.99232147,0.0000,04/27.8890/2019,2000,g 15.5,4.0
# From MPC118842
C/2019 J1 (Lemmon),e,24.5497,98.1027,167.7953,69.31196,0.0017080,0.96420013,1.5732,10/16.0/2021,2000,g 12.0,4.0
# From MPEC 2021-R75
C/2019 J2 (Palomar),e,105.2011,25.5217,98.7367,160.1981,0.0004861,0.98922539,0.0000,07/19.7907/2019,2000,g 13.0,4.0
# From MPC117071
C/2019 J3 (ATLAS),h,08/02.0861/2019,131.4022,270.5437,16.6127,1.000547,2.374595,2000,13.5,4.0
# From MPC117071
C/2019 JU6 (ATLAS),e,148.3187,21.7607,94.9456,353.7683,0.0001481,0.99421468,0.0000,06/01.0161/2019,2000,g 14.5,4.0
# From MPEC 2021-P47
C/2019 K1 (ATLAS),h,02/13.0046/2020,87.1206,73.3732,265.7139,1.000056,2.012574,2000,10.0,4.0
# From MPC119997
C/2019 K4 (Ye),e,105.2980,180.1495,139.7839,1344,0.0000200,0.99831729,0.0000,06/16.1280/2019,2000,g 12.5,4.0
# From MPEC 2021-P47
C/2019 K5 (Young),e,15.3174,177.1391,175.0230,161.6072,0.0004797,0.98739897,0.0000,06/22.9946/2019,2000,g 13.0,4.0
# From MPEC 2021-P47
C/2019 K6 (PANSTARRS),e,132.3827,42.9585,187.6400,1932,0.0000116,0.99796608,0.0000,05/20.2876/2020,2000,g 11.5,4.0
# From MPEC 2021-TD0
C/2019 K7 (Smith),h,06/17.1757/2020,103.5422,307.9309,27.3406,1.000108,4.476168,2000,6.0,4.0
# From MPEC 2021-R75
C/2019 K8 (ATLAS),e,93.2086,291.0473,85.3966,2428,0.0000082,0.99868432,0.0000,07/21.6263/2019,2000,g 11.5,4.0
# From MPC118095
C/2019 L1 (PANSTARRS),e,9.9898,254.4209,49.9927,9.841011,0.0319260,0.70600033,25.4327,10/16.0/2021,2000,g 13.5,4.0
# From MPC115886
C/2019 L2 (NEOWISE),e,152.1959,12.5631,18.7702,24.87777,0.0079430,0.93478503,7.3737,10/16.0/2021,2000,g 16.0,4.0
# From MPEC 2021-TD0
P/2019 LD2 (ATLAS),e,11.6096,179.5830,122.5424,5.254933,0.0818188,0.12931384,46.1643,10/16.0/2021,2000,g  8.5,4.0
# From MPEC 2021-TD0
C/2019 L3 (ATLAS),h,01/09.6299/2022,48.3635,290.7894,171.6132,1.001431,3.554486,2000,4.5,4.0
# From MPC118095
C/2019 LB7 (Kleyna),e,164.2912,3.8981,336.4774,34.57050,0.0048489,0.92814133,4.5307,10/16.0/2021,2000,g 17.0,4.0
# From MPC118843
P/2019 M2 (ATLAS),e,12.2809,307.6009,332.5807,3.027400,0.1871110,0.64807192,158.3764,10/16.0/2021,2000,g 21.2,4.0
# From MPC118095
C/2019 M3 (ATLAS),h,01/02.1356/2019,99.4778,154.9060,87.8942,1.000443,2.418963,2000,12.2,4.0
# From MPEC 2021-R75
C/2019 N1 (ATLAS),e,82.4279,13.5762,193.4420,7562,0.0000015,0.99977457,0.0000,12/01.7777/2020,2000,g  7.5,4.0
# From MPEC 2021-N06
C/2019 NJ3 (Lemmon),h,10/22.5110/2020,99.4386,142.4542,246.8717,1.001380,4.362059,2000,9.0,4.0
# From MPEC 2021-TD0
A/2019 O2,e,93.2914,48.2946,129.6672,57.36737,0.0022683,0.83121763,358.7776,10/16.0/2021,2000,g  9.5,2.0
# From MPEC 2021-TD0
C/2019 O3 (Palomar),h,03/08.5743/2021,89.8170,300.3852,60.0805,1.003122,8.819664,2000,3.5,4.0
# From MPEC 2021-P47
A/2019 O4,e,115.0928,354.9100,61.8583,32.98738,0.0052021,0.88948122,3.1929,10/16.0/2021,2000,g 15.5,2.0
# From MPEC 2021-N06
C/2019 Q1 (Lemmon),h,07/20.2242/2020,155.7253,42.4708,56.1266,1.000444,4.998770,2000,8.5,4.0
# From MPC117072
A/2019 Q2,e,159.0261,188.0205,176.3058,57.17387,0.0022799,0.97798999,0.0000,07/22.1303/2019,2000,g 18.0,2.0
# From MPC117072
C/2019 Q3 (PANSTARRS),h,08/21.5368/2018,65.5251,151.3224,152.7280,1.003547,7.257311,2000,8.5,4.0
# From MPC117072
P/2019 S2 (PANSTARRS),e,10.4715,93.1359,216.9947,4.738515,0.0955522,0.20661469,92.3737,10/16.0/2021,2000,g 13.5,4.0
# From MPC118096
P/2019 S3 (PANSTARRS),e,8.6948,150.1599,212.9945,3.415012,0.1561765,0.47111349,122.0627,10/16.0/2021,2000,g 18.3,4.0
# From MPEC 2021-S45
C/2019 S4 (Lemmon),e,92.0338,63.1589,71.3663,231.1399,0.0002805,0.98510732,0.0000,04/07.9146/2020,2000,g 11.0,4.0
# From MPEC 2021-P47
A/2019 T1,e,120.8720,6.9487,91.0521,38.34887,0.0041503,0.88834537,1.1395,10/16.0/2021,2000,g 13.0,2.0
# From MPEC 2021-P47
C/2019 T2 (Lemmon),e,111.4890,155.6424,239.3958,2004,0.0000110,0.99867964,0.0000,04/22.3019/2021,2000,g  9.0,4.0
# From MPEC 2021-TD0
C/2019 T3 (ATLAS),e,121.8618,139.5214,112.3104,3053,0.0000058,0.99805234,0.0000,03/03.0432/2021,2000,g  6.8,4.0
# From MPEC 2021-TD0
C/2019 T4 (ATLAS),e,53.6241,199.9421,351.2120,1018,0.0000303,0.99583436,0.0000,06/09.2151/2022,2000,g  5.0,4.0
# From MPEC 2021-P47
P/2019 T5 (ATLAS),e,33.4406,247.6651,189.5691,7.996912,0.0435833,0.80910740,35.1646,10/16.0/2021,2000,g 15.0,4.0
# From MPEC 2021-P47
P/2019 T6 (PANSTARRS),e,18.6948,71.2808,328.9149,5.434798,0.0777909,0.62270353,55.0826,10/16.0/2021,2000,g 15.5,4.0
# From MPC118096
P/2019 U4 (PANSTARRS),e,11.6951,200.0073,180.9797,3.520450,0.1492130,0.47570984,113.1607,10/16.0/2021,2000,g 19.0,4.0
# From MPEC 2021-TD0
C/2019 U5 (PANSTARRS),h,03/30.1040/2023,113.5191,2.6412,181.5474,1.000895,3.623049,2000,4.5,4.0
# From MPEC 2021-P47
C/2019 U6 (Lemmon),e,60.9986,235.7017,329.6517,390.2768,0.0001278,0.99765720,0.0000,06/18.7455/2020,2000,g 10.0,4.0
# From MPC119998
C/2019 V1 (Borisov),e,61.8664,83.1932,51.1811,1570,0.0000158,0.99802737,0.0000,07/16.4480/2020,2000,g 11.0,4.0
# From MPEC 2021-P47
P/2019 V2 (Groeller),e,11.8060,189.1800,335.9489,7.509376,0.0478959,0.33147652,17.3301,10/16.0/2021,2000,g 10.0,4.0
# From MPC119998
P/2019 W1 (PANSTARRS),e,23.4653,35.3875,18.6836,4.549797,0.1015584,0.26651353,90.6094,10/16.0/2021,2000,g 12.9,4.0
# From MPEC 2021-P47
P/2019 X1 (Pruyne),e,10.2462,43.6838,36.7965,6.172930,0.0642639,0.30297034,52.5508,10/16.0/2021,2000,g 10.4,4.0
# From MPC119999
C/2019 Y1 (ATLAS),e,73.2906,31.5271,57.9581,85.64423,0.0012435,0.99029490,0.0000,03/15.5997/2020,2000,g 13.7,4.0
# From MPEC 2020-L06
C/2019 Y4 (ATLAS),h,05/31.0504/2020,45.8114,120.9377,177.2715,1.001388,0.251497,2000,11.6,6.0
# From MPEC 2020-L06
C/2019 Y4-A (ATLAS),h,05/31.0504/2020,45.8114,120.9377,177.2715,1.001388,0.251497,2000,11.6,6.0
# From MPEC 2020-L06
C/2019 Y4-B (ATLAS),e,45.4459,120.6335,177.4046,1331,0.0000203,0.99980988,0.0000,05/31.0290/2020,2000,g 12.8,6.0
# From MPEC 2020-L06
C/2019 Y4-C (ATLAS),h,05/31.0081/2020,45.5935,120.6635,177.3049,1.002107,0.252551,2000,12.7,6.0
# From MPEC 2020-L06
C/2019 Y4-D (ATLAS),e,45.6353,121.0436,177.4431,68.02807,0.0017566,0.99629660,0.0000,05/31.1268/2020,2000,g 12.5,6.0
# From MPEC 2021-P47
C/2019 Y5 (PANSTARRS),e,82.8040,51.7761,303.5126,820.1480,0.0000420,0.99400714,0.0000,08/18.2418/2019,2000,g 11.0,4.0
# From MPEC 2020-L06
C/2020 A2 (Iwamoto),e,120.7291,286.3701,68.1872,1366,0.0000195,0.99928456,0.0000,01/08.4467/2020,2000,g 13.5,4.0
# From MPEC 2020-L06
C/2020 A3 (ATLAS),h,07/29.8568/2019,146.7733,120.3812,271.1710,1.025896,5.838811,2000,8.0,4.0
# From MPEC 2020-L06
C/2020 B3 (Rankin),e,20.7088,185.8388,325.0284,1169,0.0000247,0.99713983,0.0000,10/19.5674/2019,2000,g 13.0,4.0
# From MPEC 2021-R75
C/2020 F2 (ATLAS),h,07/16.2069/2022,163.5810,250.2605,48.3687,1.004222,8.816971,2000,4.5,4.0
# From MPEC 2021-O56
C/2020 F3 (NEOWISE),e,128.9599,61.0184,37.2875,339.3169,0.0001577,0.99913102,0.0000,07/03.6315/2020,2000,g  7.5,5.2
# From MPEC 2021-TD0
C/2020 F5 (MASTER),h,03/24.6036/2021,51.7613,350.5912,311.1361,1.005760,4.326290,2000,6.5,3.2
# From MPEC 2020-L06
C/2020 F6 (PANSTARRS),e,174.5826,207.8940,344.6208,408.2832,0.0001195,0.99140095,0.0000,04/11.7363/2020,2000,g 14.5,2.8
# From MPEC 2021-P47
C/2020 F7 (Lemmon),e,93.9536,321.8869,227.9703,699.6417,0.0000533,0.99237879,0.0000,11/14.0120/2021,2000,g  7.0,4.0
# From MPEC 2020-KB7
C/2020 F8 (SWAN),e,110.7598,259.9830,68.1932,270.5847,0.0002214,0.99841109,0.0000,05/27.5872/2020,2000,g 10.0,4.0
# From MPEC 2020-L06
P/2020 G1 (Pimentel),e,18.4819,240.0959,207.6453,3.609745,0.1437107,0.85992119,83.0148,10/16.0/2021,2000,g 17.0,4.0
# From MPEC 2020-L06
C/2020 H2 (Pruyne),e,125.0228,277.6457,26.7075,191.6144,0.0003716,0.99564994,0.0000,04/27.6566/2020,2000,g 18.0,4.0
# From MPEC 2020-HM1
C/2020 H3 (Wierzchos),p,06/05.7162/2020,62.5292,30.4456,2.300288,270.6227,2000,13.5,4.0
# From MPEC 2020-L06
C/2020 H4 (Leonard),e,84.5131,307.7329,117.5878,48.07206,0.0029571,0.98072542,0.0000,08/29.5393/2020,2000,g 15.0,3.2
# From MPEC 2021-O56
C/2020 H5 (Robinson),e,70.2303,210.6314,326.4029,3456,0.0000049,0.99729579,0.0000,12/11.9686/2020,2000,g  5.0,4.0
# From MPEC 2021-R75
C/2020 H6 (ATLAS),h,10/01.0715/2021,79.9683,213.7069,20.3473,1.000692,4.702892,2000,8.0,3.2
# From MPEC 2020-KB7
C/2020 H7 (Lemmon),e,135.9235,323.5194,82.6780,1405,0.0000187,0.99685380,0.0000,06/02.9510/2020,2000,g 11.0,4.0
# From MPEC 2021-N06
C/2020 H8 (PANSTARRS),e,99.6504,68.4086,128.9413,593.3500,0.0000682,0.99212003,0.0000,06/04.4667/2020,2000,g 10.5,4.0
# From MPEC 2020-L06
A/2020 H9,e,137.8822,213.1390,312.9149,564.2228,0.0000735,0.99542834,0.0000,12/21.4508/2019,2000,g 18.0,2.0
# From MPEC 2021-S45
C/2020 J1 (SONEAR),h,04/18.6101/2021,142.2962,226.5826,341.7565,1.000445,3.355197,2000,8.5,3.2
# From MPEC 2021-TD0
C/2020 K1 (PANSTARRS),e,89.6571,94.3622,213.9703,10944,0.0000009,0.99971911,0.0000,05/09.1002/2023,2000,g  5.5,4.0
# From MPEC 2021-N06
C/2020 K2 (PANSTARRS),h,08/05.6922/2020,91.0380,288.3516,67.3197,1.003043,8.878816,2000,10.8,4.0
# From MPEC 2020-KF9
C/2020 K3 (Leonard),p,06/01.0032/2020,129.0152,64.4924,1.583069,28.3546,2000,14.5,4.0
# From MPEC 2020-L06
C/2020 K4 (PANSTARRS),e,125.5684,264.1091,308.7963,23.88954,0.0084410,0.92658783,4.9911,10/16.0/2021,2000,g 16.5,4.0
# From MPEC 2021-R75
C/2020 K5 (PANSTARRS),h,06/05.5738/2021,67.1511,86.1648,249.5912,1.001511,1.535700,2000,11.0,4.0
# From MPEC 2021-TD0
C/2020 K6 (Rankin),h,09/15.4912/2021,103.6437,291.5266,44.2994,1.003084,5.868345,2000,8.0,4.0
# From MPEC 2021-S45
C/2020 K7 (PANSTARRS),e,32.0423,286.0757,358.2242,102.3911,0.0009513,0.93761036,0.6831,10/16.0/2021,2000,g  8.0,4.0
# From MPEC 2021-P47
